line1,line2,validFromUtcTime
1 00000U 00000E   26001.00000000  .00000000  00000-0  27772-4 0    01,2 00000  89.0018   0.3311 0010047 269.8357  60.3091 13.55310562    08,2026-01-01T00:00:00Z
1 00000U 00000E   26002.00000000  .00000000  00000-0  27772-4 0    02,2 00000  89.0017   0.2285 0010098 267.5784 258.7810 13.55339341    09,2026-01-02T00:00:00Z
